DUBAISAT-1              
1 35682U 09041B   26182.94414517  .00000960  00000+0  14972-3 0  9992
2 35682  98.0070 316.0415 0010933  30.5752 329.6092 14.75148259907270
OCEANSAT-2              
1 35931U 09051A   26182.92565464 -.00000229  00000+0 -13116-3 0  9995
2 35931  98.2318 168.3060 0016418 192.1445 167.9328 13.99659482881395
WORLDVIEW-2 (WV-2)      
1 35946U 09055A   26182.91602439  .00000147  00000+0  63277-4 0  9999
2 35946  98.4763 256.1643 0004644 163.4715 196.6624 14.37903700877761
SMOS                    
1 36036U 09059A   26182.78356972  .00000259  00000+0  96372-4 0  9993
2 36036  98.4425   9.9046 0001310  87.6756 272.4582 14.39780462875558
YAOGAN-7                
1 36110U 09069A   26182.91488795  .00000530  00000+0  80423-4 0  9993
2 36110  98.0052  68.6898 0024500 355.2314   4.8659 14.78024701891808
TANDEM-X                
1 36605U 10030A   26182.61687690  .00000599  00000+0  31706-4 0  9999
2 36605  97.4457 190.1177 0001792  96.8129 263.3310 15.19152803888836
CARTOSAT-2B             
1 36795U 10035A   26182.95637575  .00000350  00000+0  54937-4 0  9994
2 36795  97.9946 233.4116 0012009 137.6210 222.5931 14.78600942862032
YAOGAN-10               
1 36834U 10038A   26182.97432201  .00001854  00000+0  22153-3 0  9996
2 36834  97.8966 206.2603 0001708  87.0765   1.0780 14.85393795859405
COSMO-SKYMED 4          
1 37216U 10060A   26182.95851389  .00000780  00000+0  10455-3 0  9995
2 37216  97.8883   6.3441 0001482  82.7093 277.4289 14.82159043846752
RESOURCESAT-2           
1 37387U 11015A   26182.93979507  .00000098  00000+0  64778-4 0  9996
2 37387  98.7639 250.2794 0010793 209.3896 150.6675 14.21603390788279
HAIYANG-2A              
1 37781U 11043A   26182.23608220  .00000161  00000+0  21773-3 0  9997
2 37781  99.3390 184.5963 0004752  61.7209 298.4419 13.73990655748587
RASAT                   
1 37791U 11044D   26182.96541141  .00000396  00000+0  77068-4 0  9996
2 37791  98.0586 274.1367 0021312 142.3944 272.7923 14.68179888795352
SRMSAT                  
1 37841U 11058D   26182.77623690  .00000384  00000+0  64524-4 0  9996
2 37841  19.9733 331.1680 0011804   4.9086  23.3871 14.11578614759889
PLEIADES 1A             
1 38012U 11076F   26182.96488686  .00000238  00000+0  61084-4 0  9998
2 38012  98.1979 257.8690 0001767  87.8175  85.0222 14.58539535774143
ZIYUAN 1-02C (ZY 1-02C) 
1 38038U 11079A   26182.97161188  .00000218  00000+0  85788-4 0  9990
2 38038  98.4071 249.9707 0005128 262.6635 200.2591 14.38225581761335
ARIRANG-3 (KOMPSAT-3)   
1 38338U 12025B   26182.95051622  .00000486  00000+0  10577-3 0  9994
2 38338  98.1178 140.1562 0006760  72.5765 287.6175 14.62219363753504
EXACTVIEW-1 (ADS-1B)    
1 38709U 12039C   26182.91586842  .00000133  00000+0  76430-4 0  9994
2 38709  98.9795 300.6398 0011778 126.3534 233.8733 14.24988982724808
SPOT 6                  
1 38755U 12047A   26182.94727759 -.00000016  00000+0  65225-5 0  9993
2 38755  98.2118 250.0832 0001248  78.2157 281.9182 14.58530067735201
PLEIADES 1B             
1 39019U 12068A   26182.96600404  .00000034  00000+0  17242-4 0  9993
2 39019  98.1948 257.8141 0001708  85.4574 274.6821 14.58568373723002
GOKTURK 2               
1 39030U 12073A   26182.93177566  .00001003  00000+0  15417-3 0  9995
2 39030  97.6808  19.6236 0001078  61.4974 298.6345 14.75559419726685
LANDSAT 8               
1 39084U 13008A   26182.92614872  .00000352  00000+0  88198-4 0  9991
2 39084  98.2297 252.8860 0001356  93.5972 266.5382 14.57104365700043
SARAL                   
1 39086U 13009A   26182.91483237  .00000077  00000+0  44138-4 0  9992
2 39086  98.5558   9.2954 0000960 203.1949 156.9191 14.32859424697714
GAOFEN-1                
1 39150U 13018A   26182.97178988  .00000692  00000+0  10651-3 0  9999
2 39150  97.9095 254.7391 0016003 214.8258 145.1906 14.76505660710420
VNREDSAT 1              
1 39160U 13021B   26182.91158061  .00000316  00000+0  67617-4 0  9996
2 39160  97.9074 235.7623 0001705  81.6727 278.4670 14.64870819702448
ARIRANG-5 (KOMPSAT-5)   
1 39227U 13042A   26182.93100749  .00002394  00000+0  17511-3 0  9990
2 39227  97.6194   9.4230 0005119  86.9643 273.2169 15.04540352706070
SKYSAT-A                
1 39418U 13066C   26182.87323764  .00003541  00000+0  20305-3 0  9995
2 39418  97.3804 231.8027 0019705 262.5520  97.3473 15.13054240690705
DUBAISAT-2              
1 39419U 13066D   26182.97857213  .00005086  00000+0  31395-3 0  9995
2 39419  97.4567 172.7360 0010658 351.9192   8.1865 15.10293835688627
GPM-CORE                
1 39574U 14009C   26182.77630891  .00011702  00000+0  25232-3 0  9999
2 39574  64.9714 259.2565 0011292 257.4312 102.5566 15.44873450700063
SENTINEL-1A             
1 39634U 14016A   26182.97319823 -.00000169  00000+0 -26141-4 0  9993
2 39634  98.1773 190.2898 0001382  86.0698 274.0659 14.59199020652174
KAZEOSAT 1              
1 39731U 14024A   26182.93936049  .00000082  00000+0  37848-4 0  9999
2 39731  98.3207 255.0196 0001164  78.4529 281.6792 14.42085211640686
