OBJECT_NAME,OBJECT_ID,EPOCH,MEAN_MOTION,ECCENTRICITY,INCLINATION,RA_OF_ASC_NODE,ARG_OF_PERICENTER,MEAN_ANOMALY,EPHEMERIS_TYPE,CLASSIFICATION_TYPE,NORAD_CAT_ID,ELEMENT_SET_NO,REV_AT_EPOCH,BSTAR,MEAN_MOTION_DOT,MEAN_MOTION_DDOT
DUBAISAT-1,2009-041B,2026-07-01T22:39:34.142688,14.75148259,.00109333,98.0070,316.0415,30.5752,329.6092,0,U,35682,999,90727,.14971798E-3,.96E-5,0
OCEANSAT-2,2009-051A,2026-07-01T22:12:56.560896,13.99659482,.00164182,98.2318,168.3060,192.1445,167.9328,0,U,35931,999,88139,-.1311569E-3,-.229E-5,0
WORLDVIEW-2 (WV-2),2009-055A,2026-07-01T21:59:04.507296,14.37903700,.00046444,98.4763,256.1643,163.4715,196.6624,0,U,35946,999,87776,.63276652E-4,.147E-5,0
SMOS,2009-059A,2026-07-01T18:48:20.423808,14.39780462,.00013108,98.4425,9.9046,87.6756,272.4582,0,U,36036,999,87555,.96371729E-4,.259E-5,0
YAOGAN-7,2009-069A,2026-07-01T21:57:26.318880,14.78024701,.00245006,98.0052,68.6898,355.2314,4.8659,0,U,36110,999,89180,.80423464E-4,.53E-5,0
TANDEM-X,2010-030A,2026-07-01T14:48:18.164160,15.19152803,.00017924,97.4457,190.1177,96.8129,263.3310,0,U,36605,999,88883,.31705549E-4,.599E-5,0
CARTOSAT-2B,2010-035A,2026-07-01T22:57:10.864800,14.78600942,.0012009,97.9946,233.4116,137.6210,222.5931,0,U,36795,999,86203,.54937227E-4,.35E-5,0
YAOGAN-10,2010-038A,2026-07-01T23:23:01.421664,14.85393795,.00017083,97.8966,206.2603,87.0765,1.0780,0,U,36834,999,85940,.22153475E-3,.1854E-4,0
COSMO-SKYMED 4,2010-060A,2026-07-01T23:00:15.600096,14.82159043,.00014827,97.8883,6.3441,82.7093,277.4289,0,U,37216,999,84675,.10454839E-3,.78E-5,0
RESOURCESAT-2,2011-015A,2026-07-01T22:33:18.294048,14.21603390,.00107935,98.7639,250.2794,209.3896,150.6675,0,U,37387,999,78827,.64777746E-4,.98E-6,0
HAIYANG-2A,2011-043A,2026-07-01T05:39:57.502080,13.73990655,.0004752,99.3390,184.5963,61.7209,298.4419,0,U,37781,999,74858,.21773E-3,.161E-5,0
RASAT,2011-044D,2026-07-01T23:10:11.545824,14.68179888,.00213122,98.0586,274.1367,142.3944,272.7923,0,U,37791,999,79535,.77067735E-4,.396E-5,0
SRMSAT,2011-058D,2026-07-01T18:37:46.868160,14.11578614,.00118043,19.9733,331.1680,4.9086,23.3871,0,U,37841,999,75988,.64524419E-4,.384E-5,0
PLEIADES 1A,2011-076F,2026-07-01T23:09:26.224704,14.58539535,.00017673,98.1979,257.8690,87.8175,85.0222,0,U,38012,999,77414,.61084483E-4,.238E-5,0
ZIYUAN 1-02C (ZY 1-02C),2011-079A,2026-07-01T23:19:07.266432,14.38225581,.00051286,98.4071,249.9707,262.6635,200.2591,0,U,38038,999,76133,.85787717E-4,.218E-5,0
ARIRANG-3 (KOMPSAT-3),2012-025B,2026-07-01T22:48:44.601408,14.62219363,.00067608,98.1178,140.1562,72.5765,287.6175,0,U,38338,999,75350,.10576523E-3,.486E-5,0
EXACTVIEW-1 (ADS-1B),2012-039C,2026-07-01T21:58:51.031488,14.24988982,.00117787,98.9795,300.6398,126.3534,233.8733,0,U,38709,999,72480,.7642964E-4,.133E-5,0
SPOT 6,2012-047A,2026-07-01T22:44:04.783776,14.58530067,.00012487,98.2118,250.0832,78.2157,281.9182,0,U,38755,999,73520,.6522484E-5,-.16E-6,0
PLEIADES 1B,2012-068A,2026-07-01T23:11:02.749056,14.58568373,.00017085,98.1948,257.8141,85.4574,274.6821,0,U,39019,999,72300,.17242136E-4,.34E-6,0
GOKTURK 2,2012-073A,2026-07-01T22:21:45.417024,14.75559419,.00010784,97.6808,19.6236,61.4974,298.6345,0,U,39030,999,72668,.15416846E-3,.1003E-4,0
LANDSAT 8,2013-008A,2026-07-01T22:13:39.249408,14.57104365,.00013563,98.2297,252.8860,93.5972,266.5382,0,U,39084,999,70004,.88197596E-4,.352E-5,0
SARAL,2013-009A,2026-07-01T21:57:21.516768,14.32859424,.00009604,98.5558,9.2954,203.1949,156.9191,0,U,39086,999,69771,.44138365E-4,.77E-6,0
GAOFEN-1,2013-018A,2026-07-01T23:19:22.645632,14.76505660,.00160038,97.9095,254.7391,214.8258,145.1906,0,U,39150,999,71042,.10650687E-3,.692E-5,0
VNREDSAT 1,2013-021B,2026-07-01T21:52:40.564704,14.64870819,.00017058,97.9074,235.7623,81.6727,278.4670,0,U,39160,999,70244,.67616804E-4,.316E-5,0
ARIRANG-5 (KOMPSAT-5),2013-042A,2026-07-01T22:20:39.047136,15.04540352,.00051196,97.6194,9.4230,86.9643,273.2169,0,U,39227,999,70607,.17510836E-3,.2394E-4,0
SKYSAT-A,2013-066C,2026-07-01T20:57:27.732096,15.13054240,.00197054,97.3804,231.8027,262.5520,97.3473,0,U,39418,999,69070,.20304589E-3,.3541E-4,0
DUBAISAT-2,2013-066D,2026-07-01T23:29:08.632032,15.10293835,.00106586,97.4567,172.7360,351.9192,8.1865,0,U,39419,999,68862,.31394589E-3,.5086E-4,0
GPM-CORE,2014-009C,2026-07-01T18:37:53.089824,15.44873450,.00112929,64.9714,259.2565,257.4312,102.5566,0,U,39574,999,70006,.25231533E-3,.11702E-3,0
SENTINEL-1A,2014-016A,2026-07-01T23:21:24.327072,14.59199020,.00013825,98.1773,190.2898,86.0698,274.0659,0,U,39634,999,65217,-.26140842E-4,-.169E-5,0
KAZEOSAT 1,2014-024A,2026-07-01T22:32:40.746336,14.42085211,.00011647,98.3207,255.0196,78.4529,281.6792,0,U,39731,999,64068,.37848045E-4,.82E-6,0
